NORAD_CAT_ID,OBJECT_NAME,OBJECT_TYPE,EPOCH,MEAN_MOTION,ECCENTRICITY,INCLINATION,RA_OF_ASC_NODE,ARG_OF_PERICENTER,MEAN_ANOMALY,BSTAR,MEAN_MOTION_DOT,MEAN_MOTION_DDOT,TLE_LINE0,TLE_LINE1,TLE_LINE2,SEMIMAJOR_AXIS,PERIOD,APOGEE,PERIGEE,DECAYED
49179.0,STARLINK-3043,PAYLOAD,2022-03-01 14:00:01,15.6977828,0.0003376,69.9994,13.2579,275.8515,10.9975,-0.0004547,-0.00054208,0.0,0 STARLINK-3043,1 49179U 21082BB  22060.58334491 -.00054208  00000-0 -45470-3 0  9994,2 49179  69.9994  13.2579 0003376 275.8515  10.9975 15.69778280  3688,6737.668000000002,91.733,361.8080000000001,357.259,0.0
49179.0,STARLINK-3043,PAYLOAD,2022-03-01 22:00:01,15.69747282,0.0003529,69.9998,12.3211,272.0959,97.9589,-0.00013502,-0.00016298,0.0,0 STARLINK-3043,1 49179U 21082BB  22060.91668981 -.00016298  00000-0 -13502-3 0  9993,2 49179  69.9998  12.3211 0003529 272.0959  97.9589 15.69747282 26595,6737.757,91.735,362.0,357.244,0.0
49179.0,STARLINK-3043,PAYLOAD,2022-03-02 14:00:01,15.69702516,0.0003249,70.0,10.4469,275.2316,261.0084,0.00017603,0.00020813,0.0,0 STARLINK-3043,1 49179U 21082BB  22061.58334491  .00020813  00000-0  17603-3 0  9995,2 49179  70.0000  10.4469 0003249 275.2316 261.0084 15.69702516  3665,6737.885,91.737,361.939,357.561,0.0
49179.0,STARLINK-3043,PAYLOAD,2022-03-02 22:00:00,15.69749307,0.0003315,70.0005,9.5102,271.3876,347.9202,0.00010024,0.00011771,0.0,0 STARLINK-3043,1 49179U 21082BB  22061.91667824  .00011771  00000-0  10024-3 0  9994,2 49179  70.0005   9.5102 0003315 271.3876 347.9202 15.69749307 26744,6737.751,91.734,361.85,357.3830000000001,0.0
49179.0,STARLINK-3043,PAYLOAD,2022-03-03 14:00:01,15.69703118,0.0003595,70.0001,7.6362,271.8084,153.7587,0.0003356,0.00039967,0.0,0 STARLINK-3043,1 49179U 21082BB  22062.58334491  .00039967  00000-0  33560-3 0  9996,2 49179  70.0001   7.6362 0003595 271.8084 153.7587 15.69703118 26854,6737.8830000000025,91.737,362.171,357.326,0.0
49179.0,STARLINK-3043,PAYLOAD,2022-03-03 22:00:00,15.69760439,0.0003605,70.0004,6.6994,269.6266,239.0185,2.7297e-05,3.049e-05,0.0,0 STARLINK-3043,1 49179U 21082BB  22062.91667824  .00003049  00000-0  27297-4 0  9995,2 49179  70.0004   6.6994 0003605 269.6266 239.0185 15.69760439  3683,6737.719,91.734,362.013,357.155,0.0
49179.0,STARLINK-3043,PAYLOAD,2022-03-04 14:00:01,15.69751769,0.0003271,70.0003,4.8256,270.7089,44.3209,0.0001139,0.00013408,0.0,0 STARLINK-3043,1 49179U 21082BB  22063.58335648  .00013408  00000-0  11390-3 0  9991,2 49179  70.0003   4.8256 0003271 270.7089  44.3209 15.69751769 27000,6737.744000000002,91.734,361.81300000000016,357.405,0.0
49179.0,STARLINK-3043,PAYLOAD,2022-03-04 22:00:00,15.69808327,0.0003363,70.0008,3.8889,268.9963,129.0869,-0.00023599,-0.00028357,0.0,0 STARLINK-3043,1 49179U 21082BB  22063.91667824 -.00028357  00000-0 -23599-3 0  9997,2 49179  70.0008   3.8889 0003363 268.9963 129.0869 15.69808327  3682,6737.581999999999,91.731,361.713,357.182,0.0
49179.0,STARLINK-3043,PAYLOAD,2022-03-05 06:00:00,15.69768218,0.0003476,70.0006,2.9518,274.0967,207.1798,-0.00013758,-0.00016617,0.0,0 STARLINK-3043,1 49179U 21082BB  22064.25001157 -.00016617  00000-0 -13758-3 0  9998,2 49179  70.0006   2.9518 0003476 274.0967 207.1798 15.69768218  3689,6737.696999999999,91.733,361.904,357.22,0.0
49179.0,STARLINK-3043,PAYLOAD,2022-03-05 14:00:01,15.69711414,0.000338,70.0003,2.0148,268.732,295.7039,0.00034685,0.00041333,0.0,0 STARLINK-3043,1 49179U 21082BB  22064.58334491  .00041333  00000-0  34685-3 0  9997,2 49179  70.0003   2.0148 0003380 268.7320 295.7039 15.69711414  3668,6737.86,91.737,362.002,357.44699999999995,0.0
49179.0,STARLINK-3043,PAYLOAD,2022-03-05 16:00:00,15.69685819,0.0003333,70.0002,1.7806,266.5015,48.7155,0.00090177,0.00108555,0.0,0 STARLINK-3043,1 49179U 21082BB  22064.66667824  .00108555  00000-0  90177-3 0  9993,2 49179  70.0002   1.7806 0003333 266.5015  48.7155 15.69685819 27175,6737.933000000001,91.738,362.044,357.552,0.0
49179.0,STARLINK-3043,PAYLOAD,2022-03-05 22:00:01,15.697902,0.0003286,70.0004,1.078,266.2946,21.2935,-0.00081761,-0.0009686,0.0,0 STARLINK-3043,1 49179U 21082BB  22064.91668981 -.00096860  00000-0 -81761-3 0  9992,2 49179  70.0004   1.0780 0003286 266.2946  21.2935 15.69790200  3715,6737.634,91.732,361.713,357.285,0.0
49179.0,STARLINK-3043,PAYLOAD,2022-03-06 06:00:00,15.69737392,0.0003163,70.0001,0.1409,272.9992,97.673,0.00027075,0.00032216,0.0,0 STARLINK-3043,1 49179U 21082BB  22065.25001157  .00032216  00000-0  27075-3 0  9997,2 49179  70.0001   0.1409 0003163 272.9992  97.6730 15.69737392 27279,6737.785,91.735,361.782,357.519,0.0
49179.0,STARLINK-3043,PAYLOAD,2022-03-06 14:00:01,15.69700904,0.0003334,70.0002,359.2039,266.0732,187.7519,0.00071255,0.00085549,0.0,0 STARLINK-3043,1 49179U 21082BB  22065.58334491  .00085549  00000-0  71255-3 0  9999,2 49179  70.0002 359.2039 0003334 266.0732 187.7519 15.69700904  3687,6737.89,91.737,362.001,357.5080000000001,0.0
49179.0,STARLINK-3043,PAYLOAD,2022-03-06 22:00:00,15.69805388,0.0003456,70.0006,358.2671,265.2652,271.6359,-0.0008048,-0.00095425,0.0,0 STARLINK-3043,1 49179U 21082BB  22065.91667824 -.00095425  00000-0 -80480-3 0  9991,2 49179  70.0006 358.2671 0003456 265.2652 271.6359 15.69805388 27378,6737.590999999999,91.731,361.784,357.12699999999984,0.0
49179.0,STARLINK-3043,PAYLOAD,2022-03-07 12:00:00,15.69675752,0.0003516,70.0,356.6275,267.2412,325.119,-0.00051043,-0.00060526,0.0,0 STARLINK-3043,1 49179U 21082BB  22066.50001157 -.00060526  00000-0 -51043-3 0  9995,2 49179  70.0000 356.6275 0003516 267.2412 325.1190 15.69675752  3728,6737.962,91.739,362.196,357.458,0.0
49179.0,STARLINK-3043,PAYLOAD,2022-03-07 22:00:00,15.69685639,0.0003681,70.0,355.4563,264.6007,161.5071,-7.4115e-05,-9.028e-05,0.0,0 STARLINK-3043,1 49179U 21082BB  22066.91667824 -.00009028  00000-0 -74115-4 0  9995,2 49179  70.0000 355.4563 0003681 264.6007 161.5071 15.69685639 27539,6737.933000000001,91.738,362.279,357.3180000000001,0.0
49179.0,STARLINK-3043,PAYLOAD,2022-03-08 14:00:01,15.69697784,0.000362,69.9997,353.5822,264.3292,327.9117,0.00073755,0.00088584,0.0,0 STARLINK-3043,1 49179U 21082BB  22067.58334491  .00088584  00000-0  73755-3 0  9990,2 49179  69.9997 353.5822 0003620 264.3292 327.9117 15.69697784 27638,6737.899,91.737,362.203,357.325,0.0
49179.0,STARLINK-3043,PAYLOAD,2022-03-08 22:00:00,15.69777157,0.0003673,70.0002,352.6454,263.4878,51.8377,-4.1258e-05,-5.141e-05,0.0,0 STARLINK-3043,1 49179U 21082BB  22067.91667824 -.00005141  00000-0 -41258-4 0  9990,2 49179  70.0002 352.6454 0003673 263.4878  51.8377 15.69777157  3691,6737.672,91.733,362.011,357.06199999999984,0.0
49179.0,STARLINK-3043,PAYLOAD,2022-03-09 06:00:00,15.69785578,0.0003568,69.9998,351.7082,268.5862,129.8958,0.00011867,0.00013999,0.0,0 STARLINK-3043,1 49179U 21082BB  22068.25001157  .00013999  00000-0  11867-3 0  9999,2 49179  69.9998 351.7082 0003568 268.5862 129.8958 15.69785578 27740,6737.647,91.732,361.916,357.108,0.0
49179.0,STARLINK-3043,PAYLOAD,2022-03-09 14:00:01,15.69736596,0.0003505,69.9996,350.7712,261.0967,220.595,0.00060704,0.00072849,0.0,0 STARLINK-3043,1 49179U 21082BB  22068.58334491  .00072849  00000-0  60704-3 0  9998,2 49179  69.9996 350.7712 0003505 261.0967 220.5950 15.69736596  3709,6737.788000000001,91.735,362.014,357.291,0.0
49179.0,STARLINK-3043,PAYLOAD,2022-03-09 22:00:01,15.698168,0.0003471,69.9996,349.8343,261.3985,303.4813,-0.00041068,-0.00049089,0.0,0 STARLINK-3043,1 49179U 21082BB  22068.91668981 -.00049089  00000-0 -41068-3 0  9993,2 49179  69.9996 349.8343 0003471 261.3985 303.4813 15.69816800 27840,6737.558000000001,91.73,361.762,357.085,0.0
49179.0,STARLINK-3043,PAYLOAD,2022-03-10 14:00:01,15.69691162,0.0003329,69.9993,347.9598,259.4825,111.6869,0.00067996,0.00081555,0.0,0 STARLINK-3043,1 49179U 21082BB  22069.58334491  .00081555  00000-0  67996-3 0  9993,2 49179  69.9993 347.9598 0003329 259.4825 111.6869 15.69691162  3689,6737.918000000002,91.738,362.026,357.54,0.0
49179.0,STARLINK-3043,PAYLOAD,2022-03-10 20:00:01,15.69758821,0.0003384,69.9998,347.2571,258.8453,84.6302,8.515600000000001e-05,9.969e-05,0.0,0 STARLINK-3043,1 49179U 21082BB  22069.83334491  .00009969  00000-0  85156-4 0  9999,2 49179  69.9998 347.2571 0003384 258.8453  84.6302 15.69758821 27985,6737.724,91.734,361.869,357.309,0.0
49179.0,STARLINK-3043,PAYLOAD,2022-03-10 22:00:01,15.69768725,0.0003397,69.9997,347.0227,260.4197,193.9037,-5.673800000000001e-05,-6.985e-05,0.0,0 STARLINK-3043,1 49179U 21082BB  22069.91668981 -.00006985  00000-0 -56738-4 0  9993,2 49179  69.9997 347.0227 0003397 260.4197 193.9037 15.69768725  3693,6737.696,91.733,361.85,357.272,0.0
49179.0,STARLINK-3043,PAYLOAD,2022-03-11 06:00:00,15.69812493,0.0003422,69.9995,346.0856,264.0926,273.3338,-0.00020662,-0.00024869,0.0,0 STARLINK-3043,1 49179U 21082BB  22070.25001157 -.00024869  00000-0 -20662-3 0  9995,2 49179  69.9995 346.0856 0003422 264.0926 273.3338 15.69812493 28053,6737.57,91.731,361.741,357.13,0.0
49179.0,STARLINK-3043,PAYLOAD,2022-03-11 14:00:01,15.69728618,0.0003558,69.9995,345.1486,258.4998,2.1462,0.00087472,0.00105443,0.0,0 STARLINK-3043,1 49179U 21082BB  22070.58334491  .00105443  00000-0  87472-3 0  9999,2 49179  69.9995 345.1486 0003558 258.4998   2.1462 15.69728618  3669,6737.81,91.736,362.073,357.278,0.0
49179.0,STARLINK-3043,PAYLOAD,2022-03-11 22:00:00,15.69846175,0.0003573,69.9995,344.2117,258.9434,84.8558,-0.0012027,-0.00141961,0.0,0 STARLINK-3043,1 49179U 21082BB  22070.91667824 -.00141961  00000-0 -12027-2 0  9995,2 49179  69.9995 344.2117 0003573 258.9434  84.8558 15.69846175  3681,6737.474,91.729,361.746,356.932,0.0
49179.0,STARLINK-3043,PAYLOAD,2022-03-12 14:00:01,15.69726248,0.0003514,69.9992,342.3375,256.5586,253.4856,0.00017378,0.00020565,0.0,0 STARLINK-3043,1 49179U 21082BB  22071.58334491  .00020565  00000-0  17378-3 0  9999,2 49179  69.9992 342.3375 0003514 256.5586 253.4856 15.69726248 28264,6737.816999999999,91.736,362.05,357.315,0.0
